[
{"CCSDS_OMM_VERS":"2.0",
"COMMENT":"GENERATED VIA SPACE-TRACK.ORG API",
"CREATION_DATE":"2022-01-30T03:42:58",
"ORIGINATOR":"18 SPCS",
"OBJECT_NAME":"VANGUARD 1",
"OBJECT_ID":"1958-002B",
"CENTER_NAME":"EARTH",
"REF_FRAME":"TEME",
"TIME_SYSTEM":"UTC",
"MEAN_ELEMENT_THEORY":"SGP4",
"EPOCH":"2022-01-29T19:55:40.263168",
"MEAN_MOTION":"10.84851551",
"ECCENTRICITY":"0.18432890",
"INCLINATION":"34.2396",
"RA_OF_ASC_NODE":"206.5104",
"ARG_OF_PERICENTER":"133.6303",
"MEAN_ANOMALY":"243.2731",
"EPHEMERIS_TYPE":"0",
"CLASSIFICATION_TYPE":"U",
"NORAD_CAT_ID":"5",
"ELEMENT_SET_NO":"999",
"REV_AT_EPOCH":"26948",
"BSTAR":"0.00020184000000",
"MEAN_MOTION_DOT":"0.00000149",
"MEAN_MOTION_DDOT":"0.0000000000000",
"SEMIMAJOR_AXIS":"8619.624",
"PERIOD":"132.737",
"APOAPSIS":"3830.334",
"PERIAPSIS":"652.643",
"OBJECT_TYPE":"PAYLOAD",
"RCS_SIZE":"SMALL",
"COUNTRY_CODE":"US",
"LAUNCH_DATE":"1958-03-17",
"SITE":"AFETR",
"DECAY_DATE":null,
"FILE":"3287083",
"GP_ID":"194892694",
"TLE_LINE0":"0 VANGUARD 1",
"TLE_LINE1":"1 00005U 58002B   22029.83032712  .00000149  00000-0  20184-3 0  9993",
"TLE_LINE2":"2 00005  34.2396 206.5104 1843289 133.6303 243.2731 10.84851551269485"},
{"CCSDS_OMM_VERS":"2.0",
"COMMENT":"GENERATED VIA SPACE-TRACK.ORG API",
"CREATION_DATE":"2022-01-30T20:08:58",
"ORIGINATOR":"18 SPCS",
"OBJECT_NAME":"VANGUARD 1",
"OBJECT_ID":"1958-002B",
"CENTER_NAME":"EARTH",
"REF_FRAME":"TEME",
"TIME_SYSTEM":"UTC",
"MEAN_ELEMENT_THEORY":"SGP4",
"EPOCH":"2022-01-30T11:23:29.238144",
"MEAN_MOTION":"10.84851760",
"ECCENTRICITY":"0.18432790",
"INCLINATION":"34.2397",
"RA_OF_ASC_NODE":"204.5252",
"ARG_OF_PERICENTER":"136.5311",
"MEAN_ANOMALY":"239.6306",
"EPHEMERIS_TYPE":"0",
"CLASSIFICATION_TYPE":"U",
"NORAD_CAT_ID":"5",
"ELEMENT_SET_NO":"999",
"REV_AT_EPOCH":"26955",
"BSTAR":"0.00020219000000",
"MEAN_MOTION_DOT":"0.00000150",
"MEAN_MOTION_DDOT":"0.0000000000000",
"SEMIMAJOR_AXIS":"8619.622",
"PERIOD":"132.737",
"APOAPSIS":"3830.324",
"PERIAPSIS":"652.651",
"OBJECT_TYPE":"PAYLOAD",
"RCS_SIZE":"SMALL",
"COUNTRY_CODE":"US",
"LAUNCH_DATE":"1958-03-17",
"SITE":"AFETR",
"DECAY_DATE":null,
"FILE":"3287677",
"GP_ID":"194931641",
"TLE_LINE0":"0 VANGUARD 1",
"TLE_LINE1":"1 00005U 58002B   22030.47464396  .00000150  00000-0  20219-3 0  9993",
"TLE_LINE2":"2 00005  34.2397 204.5252 1843279 136.5311 239.6306 10.84851760269555"},
{"CCSDS_OMM_VERS":"2.0",
"COMMENT":"GENERATED VIA SPACE-TRACK.ORG API",
"CREATION_DATE":"2022-01-30T22:46:11",
"ORIGINATOR":"18 SPCS",
"OBJECT_NAME":"VANGUARD 1",
"OBJECT_ID":"1958-002B",
"CENTER_NAME":"EARTH",
"REF_FRAME":"TEME",
"TIME_SYSTEM":"UTC",
"MEAN_ELEMENT_THEORY":"SGP4",
"EPOCH":"2022-01-30T18:01:06.990240",
"MEAN_MOTION":"10.84851938",
"ECCENTRICITY":"0.18432780",
"INCLINATION":"34.2397",
"RA_OF_ASC_NODE":"203.6744",
"ARG_OF_PERICENTER":"137.7742",
"MEAN_ANOMALY":"238.0530",
"EPHEMERIS_TYPE":"0",
"CLASSIFICATION_TYPE":"U",
"NORAD_CAT_ID":"5",
"ELEMENT_SET_NO":"999",
"REV_AT_EPOCH":"26968",
"BSTAR":"0.00021632000000",
"MEAN_MOTION_DOT":"0.00000162",
"MEAN_MOTION_DDOT":"0.0000000000000",
"SEMIMAJOR_AXIS":"8619.621",
"PERIOD":"132.737",
"APOAPSIS":"3830.322",
"PERIAPSIS":"652.651",
"OBJECT_TYPE":"PAYLOAD",
"RCS_SIZE":"SMALL",
"COUNTRY_CODE":"US",
"LAUNCH_DATE":"1958-03-17",
"SITE":"AFETR",
"DECAY_DATE":null,
"FILE":"3287765",
"GP_ID":"194957730",
"TLE_LINE0":"0 VANGUARD 1",
"TLE_LINE1":"1     5U 58002B   22030.75077535  .00000162  00000-0  21632-3 0  9992",
"TLE_LINE2":"2     5  34.2397 203.6744 1843278 137.7742 238.0530 10.84851938269684"},
{"CCSDS_OMM_VERS":"2.0",
"COMMENT":"GENERATED VIA SPACE-TRACK.ORG API",
"CREATION_DATE":"2022-01-31T02:27:54",
"ORIGINATOR":"18 SPCS",
"OBJECT_NAME":"VANGUARD 1",
"OBJECT_ID":"1958-002B",
"CENTER_NAME":"EARTH",
"REF_FRAME":"TEME",
"TIME_SYSTEM":"UTC",
"MEAN_ELEMENT_THEORY":"SGP4",
"EPOCH":"2022-01-30T20:13:39.528768",
"MEAN_MOTION":"10.84851943",
"ECCENTRICITY":"0.18432770",
"INCLINATION":"34.2397",
"RA_OF_ASC_NODE":"203.3908",
"ARG_OF_PERICENTER":"138.1886",
"MEAN_ANOMALY":"237.5249",
"EPHEMERIS_TYPE":"0",
"CLASSIFICATION_TYPE":"U",
"NORAD_CAT_ID":"5",
"ELEMENT_SET_NO":"999",
"REV_AT_EPOCH":"26959",
"BSTAR":"0.00021028000000",
"MEAN_MOTION_DOT":"0.00000157",
"MEAN_MOTION_DDOT":"0.0000000000000",
"SEMIMAJOR_AXIS":"8619.621",
"PERIOD":"132.737",
"APOAPSIS":"3830.321",
"PERIAPSIS":"652.651",
"OBJECT_TYPE":"PAYLOAD",
"RCS_SIZE":"SMALL",
"COUNTRY_CODE":"US",
"LAUNCH_DATE":"1958-03-17",
"SITE":"AFETR",
"DECAY_DATE":null,
"FILE":"3287903",
"GP_ID":"194962482",
"TLE_LINE0":"0 VANGUARD 1",
"TLE_LINE1":"1 00005U 58002B   22030.84281862  .00000157  00000-0  21028-3 0  9995",
"TLE_LINE2":"2 00005  34.2397 203.3908 1843277 138.1886 237.5249 10.84851943269593"},
{"CCSDS_OMM_VERS":"2.0",
"COMMENT":"GENERATED VIA SPACE-TRACK.ORG API",
"CREATION_DATE":"2022-01-31T18:08:21",
"ORIGINATOR":"18 SPCS",
"OBJECT_NAME":"VANGUARD 1",
"OBJECT_ID":"1958-002B",
"CENTER_NAME":"EARTH",
"REF_FRAME":"TEME",
"TIME_SYSTEM":"UTC",
"MEAN_ELEMENT_THEORY":"SGP4",
"EPOCH":"2022-01-31T11:41:26.595168",
"MEAN_MOTION":"10.84852496",
"ECCENTRICITY":"0.18432680",
"INCLINATION":"34.2398",
"RA_OF_ASC_NODE":"201.4057",
"ARG_OF_PERICENTER":"141.0895",
"MEAN_ANOMALY":"233.7975",
"EPHEMERIS_TYPE":"0",
"CLASSIFICATION_TYPE":"U",
"NORAD_CAT_ID":"5",
"ELEMENT_SET_NO":"999",
"REV_AT_EPOCH":"26966",
"BSTAR":"0.00028136000000",
"MEAN_MOTION_DOT":"0.00000214",
"MEAN_MOTION_DDOT":"0.0000000000000",
"SEMIMAJOR_AXIS":"8619.619",
"PERIOD":"132.737",
"APOAPSIS":"3830.310",
"PERIAPSIS":"652.657",
"OBJECT_TYPE":"PAYLOAD",
"RCS_SIZE":"SMALL",
"COUNTRY_CODE":"US",
"LAUNCH_DATE":"1958-03-17",
"SITE":"AFETR",
"DECAY_DATE":null,
"FILE":"3288447",
"GP_ID":"194998242",
"TLE_LINE0":"0 VANGUARD 1",
"TLE_LINE1":"1 00005U 58002B   22031.48711337  .00000214  00000-0  28136-3 0  9992",
"TLE_LINE2":"2 00005  34.2398 201.4057 1843268 141.0895 233.7975 10.84852496269667"},
{"CCSDS_OMM_VERS":"2.0",
"COMMENT":"GENERATED VIA SPACE-TRACK.ORG API",
"CREATION_DATE":"2022-02-01T04:38:53",
"ORIGINATOR":"18 SPCS",
"OBJECT_NAME":"VANGUARD 1",
"OBJECT_ID":"1958-002B",
"CENTER_NAME":"EARTH",
"REF_FRAME":"TEME",
"TIME_SYSTEM":"UTC",
"MEAN_ELEMENT_THEORY":"SGP4",
"EPOCH":"2022-01-31T20:31:35.833440",
"MEAN_MOTION":"10.84852604",
"ECCENTRICITY":"0.18432660",
"INCLINATION":"34.2398",
"RA_OF_ASC_NODE":"200.2714",
"ARG_OF_PERICENTER":"142.7470",
"MEAN_ANOMALY":"231.6448",
"EPHEMERIS_TYPE":"0",
"CLASSIFICATION_TYPE":"U",
"NORAD_CAT_ID":"5",
"ELEMENT_SET_NO":"999",
"REV_AT_EPOCH":"26970",
"BSTAR":"0.00026984000000",
"MEAN_MOTION_DOT":"0.00000205",
"MEAN_MOTION_DDOT":"0.0000000000000",
"SEMIMAJOR_AXIS":"8619.618",
"PERIOD":"132.737",
"APOAPSIS":"3830.308",
"PERIAPSIS":"652.658",
"OBJECT_TYPE":"PAYLOAD",
"RCS_SIZE":"SMALL",
"COUNTRY_CODE":"US",
"LAUNCH_DATE":"1958-03-17",
"SITE":"AFETR",
"DECAY_DATE":null,
"FILE":"3288814",
"GP_ID":"195032221",
"TLE_LINE0":"0 VANGUARD 1",
"TLE_LINE1":"1 00005U 58002B   22031.85527585  .00000205  00000-0  26984-3 0  9992",
"TLE_LINE2":"2 00005  34.2398 200.2714 1843266 142.7470 231.6448 10.84852604269707"},
{"CCSDS_OMM_VERS":"2.0",
"COMMENT":"GENERATED VIA SPACE-TRACK.ORG API",
"CREATION_DATE":"2022-02-01T19:36:18",
"ORIGINATOR":"18 SPCS",
"OBJECT_NAME":"VANGUARD 1",
"OBJECT_ID":"1958-002B",
"CENTER_NAME":"EARTH",
"REF_FRAME":"TEME",
"TIME_SYSTEM":"UTC",
"MEAN_ELEMENT_THEORY":"SGP4",
"EPOCH":"2022-02-01T14:11:53.245536",
"MEAN_MOTION":"10.84852853",
"ECCENTRICITY":"0.18432630",
"INCLINATION":"34.2399",
"RA_OF_ASC_NODE":"198.0027",
"ARG_OF_PERICENTER":"146.0623",
"MEAN_ANOMALY":"227.2900",
"EPHEMERIS_TYPE":"0",
"CLASSIFICATION_TYPE":"U",
"NORAD_CAT_ID":"5",
"ELEMENT_SET_NO":"999",
"REV_AT_EPOCH":"26978",
"BSTAR":"0.00027809000000",
"MEAN_MOTION_DOT":"0.00000213",
"MEAN_MOTION_DDOT":"0.0000000000000",
"SEMIMAJOR_AXIS":"8619.617",
"PERIOD":"132.737",
"APOAPSIS":"3830.304",
"PERIAPSIS":"652.660",
"OBJECT_TYPE":"PAYLOAD",
"RCS_SIZE":"SMALL",
"COUNTRY_CODE":"US",
"LAUNCH_DATE":"1958-03-17",
"SITE":"AFETR",
"DECAY_DATE":null,
"FILE":"3289399",
"GP_ID":"195069857",
"TLE_LINE0":"0 VANGUARD 1",
"TLE_LINE1":"1 00005U 58002B   22032.59158849  .00000213  00000-0  27809-3 0  9993",
"TLE_LINE2":"2 00005  34.2399 198.0027 1843263 146.0623 227.2900 10.84852853269781"},
{"CCSDS_OMM_VERS":"2.0",
"COMMENT":"GENERATED VIA SPACE-TRACK.ORG API",
"CREATION_DATE":"2022-02-02T02:38:00",
"ORIGINATOR":"18 SPCS",
"OBJECT_NAME":"VANGUARD 1",
"OBJECT_ID":"1958-002B",
"CENTER_NAME":"EARTH",
"REF_FRAME":"TEME",
"TIME_SYSTEM":"UTC",
"MEAN_ELEMENT_THEORY":"SGP4",
"EPOCH":"2022-02-01T18:36:57.374784",
"MEAN_MOTION":"10.84852924",
"ECCENTRICITY":"0.18432640",
"INCLINATION":"34.2399",
"RA_OF_ASC_NODE":"197.4356",
"ARG_OF_PERICENTER":"146.8911",
"MEAN_ANOMALY":"226.1916",
"EPHEMERIS_TYPE":"0",
"CLASSIFICATION_TYPE":"U",
"NORAD_CAT_ID":"5",
"ELEMENT_SET_NO":"999",
"REV_AT_EPOCH":"26980",
"BSTAR":"0.00027774000000",
"MEAN_MOTION_DOT":"0.00000213",
"MEAN_MOTION_DDOT":"0.0000000000000",
"SEMIMAJOR_AXIS":"8619.616",
"PERIOD":"132.737",
"APOAPSIS":"3830.304",
"PERIAPSIS":"652.658",
"OBJECT_TYPE":"PAYLOAD",
"RCS_SIZE":"SMALL",
"COUNTRY_CODE":"US",
"LAUNCH_DATE":"1958-03-17",
"SITE":"AFETR",
"DECAY_DATE":null,
"FILE":"3289675",
"GP_ID":"195101499",
"TLE_LINE0":"0 VANGUARD 1",
"TLE_LINE1":"1 00005U 58002B   22032.77566406  .00000213  00000-0  27774-3 0  9996",
"TLE_LINE2":"2 00005  34.2399 197.4356 1843264 146.8911 226.1916 10.84852924269805"}]